{
  "type": "FeatureCollection",
  "features": [
    {
      "type": "Feature",
      "properties": {
        "norad_id": 35987,
        "name": "COSMOS 2251 DEB",
        "group": "cosmos-2251-debris",
        "lat": -69.49686249338666,
        "lon": -79.98600698978368,
        "alt_km": 787.688430245631,
        "timestamp": "2025-12-10T20:49:52.949615+00:00",
        "meta_object_name": "COSMOS 2251 DEB",
        "meta_object_id": "1993-036AWD",
        "meta_epoch": "2025-12-09T16:54:21.694464",
        "meta_mean_motion": 14.43096791,
        "meta_eccentricity": 0.00459367,
        "meta_inclination": 73.9999,
        "meta_ra_of_asc_node": 332.2918,
        "meta_arg_of_pericenter": 98.9143,
        "meta_mean_anomaly": 261.7217,
        "meta_ephemeris_type": 0,
        "meta_classification_type": "U",
        "meta_norad_cat_id": 35987,
        "meta_element_set_no": 999,
        "meta_rev_at_epoch": 61021,
        "meta_bstar": 0.0015703221,
        "meta_mean_motion_dot": 5.314e-05,
        "meta_mean_motion_ddot": 0,
        "tle_line1": "1 35987U 93036AWD 25343.70441776  .00005314  00000+0  15703-2 0  9996",
        "tle_line2": "2 35987  73.9999 332.2918 0045936  98.9143 261.7217 14.43096791610219"
      },
      "geometry": {
        "type": "Point",
        "coordinates": [
          -79.98600698978368,
          -69.49686249338666
        ]
      }
    },
    {
      "type": "Feature",
      "properties": {
        "norad_id": 35989,
        "name": "COSMOS 2251 DEB",
        "group": "cosmos-2251-debris",
        "lat": 8.104902456268407,
        "lon": -70.3902223248076,
        "alt_km": 753.937591199433,
        "timestamp": "2025-12-10T20:49:52.949625+00:00",
        "meta_object_name": "COSMOS 2251 DEB",
        "meta_object_id": "1993-036AWF",
        "meta_epoch": "2025-12-10T12:26:20.084928",
        "meta_mean_motion": 14.37097303,
        "meta_eccentricity": 0.00219152,
        "meta_inclination": 74.0383,
        "meta_ra_of_asc_node": 287.9166,
        "meta_arg_of_pericenter": 10.2145,
        "meta_mean_anomaly": 349.9449,
        "meta_ephemeris_type": 0,
        "meta_classification_type": "U",
        "meta_norad_cat_id": 35989,
        "meta_element_set_no": 999,
        "meta_rev_at_epoch": 87147,
        "meta_bstar": 0.00040745233,
        "meta_mean_motion_dot": 1.187e-05,
        "meta_mean_motion_ddot": 0,
        "tle_line1": "1 35989U 93036AWF 25344.51828802  .00001187  00000+0  40745-3 0  9996",
        "tle_line2": "2 35989  74.0383 287.9166 0021915  10.2145 349.9449 14.37097303871477"
      },
      "geometry": {
        "type": "Point",
        "coordinates": [
          -70.3902223248076,
          8.104902456268407
        ]
      }
    },
    {
      "type": "Feature",
      "properties": {
        "norad_id": 35993,
        "name": "COSMOS 2251 DEB",
        "group": "cosmos-2251-debris",
        "lat": 53.61113636995565,
        "lon": -0.7050149097557462,
        "alt_km": 677.6811092725275,
        "timestamp": "2025-12-10T20:49:52.949635+00:00",
        "meta_object_name": "COSMOS 2251 DEB",
        "meta_object_id": "1993-036AWK",
        "meta_epoch": "2025-12-09T16:42:55.834848",
        "meta_mean_motion": 14.65265094,
        "meta_eccentricity": 0.00290722,
        "meta_inclination": 74.0153,
        "meta_ra_of_asc_node": 338.6616,
        "meta_arg_of_pericenter": 169.2926,
        "meta_mean_anomaly": 190.8869,
        "meta_ephemeris_type": 0,
        "meta_classification_type": "U",
        "meta_norad_cat_id": 35993,
        "meta_element_set_no": 999,
        "meta_rev_at_epoch": 60398,
        "meta_bstar": 0.0011875212,
        "meta_mean_motion_dot": 6.416e-05,
        "meta_mean_motion_ddot": 0,
        "tle_line1": "1 35993U 93036AWK 25343.69647957  .00006416  00000+0  11875-2 0  9990",
        "tle_line2": "2 35993  74.0153 338.6616 0029072 169.2926 190.8869 14.65265094603988"
      },
      "geometry": {
        "type": "Point",
        "coordinates": [
          -0.7050149097557462,
          53.61113636995565
        ]
      }
    },
    {
      "type": "Feature",
      "properties": {
        "norad_id": 35996,
        "name": "COSMOS 2251 DEB",
        "group": "cosmos-2251-debris",
        "lat": -26.956113860646727,
        "lon": -64.33053691110483,
        "alt_km": 483.79975942469446,
        "timestamp": "2025-12-10T20:49:52.949645+00:00",
        "meta_object_name": "COSMOS 2251 DEB",
        "meta_object_id": "1993-036AWN",
        "meta_epoch": "2025-12-06T15:40:07.668192",
        "meta_mean_motion": 15.08900528,
        "meta_eccentricity": 0.00890114,
        "meta_inclination": 74.0155,
        "meta_ra_of_asc_node": 115.9821,
        "meta_arg_of_pericenter": 208.3907,
        "meta_mean_anomaly": 151.2421,
        "meta_ephemeris_type": 0,
        "meta_classification_type": "U",
        "meta_norad_cat_id": 35996,
        "meta_element_set_no": 999,
        "meta_rev_at_epoch": 72234,
        "meta_bstar": 0.001269926,
        "meta_mean_motion_dot": 0.00021998,
        "meta_mean_motion_ddot": 0,
        "tle_line1": "1 35996U 93036AWN 25340.65286653  .00021998  00000+0  12699-2 0  9995",
        "tle_line2": "2 35996  74.0155 115.9821 0089011 208.3907 151.2421 15.08900528722343"
      },
      "geometry": {
        "type": "Point",
        "coordinates": [
          -64.33053691110483,
          -26.956113860646727
        ]
      }
    },
    {
      "type": "Feature",
      "properties": {
        "norad_id": 35997,
        "name": "COSMOS 2251 DEB",
        "group": "cosmos-2251-debris",
        "lat": -30.77715534070849,
        "lon": -178.99708245205284,
        "alt_km": 721.7297950846387,
        "timestamp": "2025-12-10T20:49:52.949655+00:00",
        "meta_object_name": "COSMOS 2251 DEB",
        "meta_object_id": "1993-036AWP",
        "meta_epoch": "2025-12-09T20:09:48.839904",
        "meta_mean_motion": 14.51292272,
        "meta_eccentricity": 0.00157365,
        "meta_inclination": 74.043,
        "meta_ra_of_asc_node": 192.7469,
        "meta_arg_of_pericenter": 268.5156,
        "meta_mean_anomaly": 91.4203,
        "meta_ephemeris_type": 0,
        "meta_classification_type": "U",
        "meta_norad_cat_id": 35997,
        "meta_element_set_no": 999,
        "meta_rev_at_epoch": 70842,
        "meta_bstar": 0.00093479882,
        "meta_mean_motion_dot": 3.7e-05,
        "meta_mean_motion_ddot": 0,
        "tle_line1": "1 35997U 93036AWP 25343.84014861  .00003700  00000+0  93480-3 0  9999",
        "tle_line2": "2 35997  74.0430 192.7469 0015736 268.5156  91.4203 14.51292272708421"
      },
      "geometry": {
        "type": "Point",
        "coordinates": [
          -178.99708245205284,
          -30.77715534070849
        ]
      }
    },
    {
      "type": "Feature",
      "properties": {
        "norad_id": 36005,
        "name": "COSMOS 2251 DEB",
        "group": "cosmos-2251-debris",
        "lat": 25.028324286278405,
        "lon": 105.1938786310731,
        "alt_km": 771.727606122995,
        "timestamp": "2025-12-10T20:49:52.949666+00:00",
        "meta_object_name": "COSMOS 2251 DEB",
        "meta_object_id": "1993-036AWX",
        "meta_epoch": "2025-12-09T18:10:04.760256",
        "meta_mean_motion": 14.47350954,
        "meta_eccentricity": 0.00620063,
        "meta_inclination": 74.0266,
        "meta_ra_of_asc_node": 99.5861,
        "meta_arg_of_pericenter": 237.5434,
        "meta_mean_anomaly": 121.9721,
        "meta_ephemeris_type": 0,
        "meta_classification_type": "U",
        "meta_norad_cat_id": 36005,
        "meta_element_set_no": 999,
        "meta_rev_at_epoch": 87541,
        "meta_bstar": 0.0003861818,
        "meta_mean_motion_dot": 1.421e-05,
        "meta_mean_motion_ddot": 0,
        "tle_line1": "1 36005U 93036AWX 25343.75699954  .00001421  00000+0  38618-3 0  9992",
        "tle_line2": "2 36005  74.0266  99.5861 0062006 237.5434 121.9721 14.47350954875411"
      },
      "geometry": {
        "type": "Point",
        "coordinates": [
          105.1938786310731,
          25.028324286278405
        ]
      }
    },
    {
      "type": "Feature",
      "properties": {
        "norad_id": 36045,
        "name": "COSMOS 2251 DEB",
        "group": "cosmos-2251-debris",
        "lat": -64.38938541243691,
        "lon": 25.33822759332873,
        "alt_km": 697.3009761857038,
        "timestamp": "2025-12-10T20:49:52.949675+00:00",
        "meta_object_name": "COSMOS 2251 DEB",
        "meta_object_id": "1993-036AXG",
        "meta_epoch": "2025-12-09T12:28:41.789568",
        "meta_mean_motion": 14.69724058,
        "meta_eccentricity": 0.00485126,
        "meta_inclination": 73.764,
        "meta_ra_of_asc_node": 65.432,
        "meta_arg_of_pericenter": 80.3147,
        "meta_mean_anomaly": 280.3498,
        "meta_ephemeris_type": 0,
        "meta_classification_type": "U",
        "meta_norad_cat_id": 36045,
        "meta_element_set_no": 999,
        "meta_rev_at_epoch": 8341,
        "meta_bstar": 0.003329583,
        "meta_mean_motion_dot": 0.00020233,
        "meta_mean_motion_ddot": 0,
        "tle_line1": "1 36045U 93036AXG 25343.51992812  .00020233  00000+0  33296-2 0  9997",
        "tle_line2": "2 36045  73.7640  65.4320 0048512  80.3147 280.3498 14.69724058 83416"
      },
      "geometry": {
        "type": "Point",
        "coordinates": [
          25.33822759332873,
          -64.38938541243691
        ]
      }
    }
  ]
}